NORAD_CAT_ID,OBJECT_NAME,OBJECT_TYPE,EPOCH,MEAN_MOTION,ECCENTRICITY,INCLINATION,RA_OF_ASC_NODE,ARG_OF_PERICENTER,MEAN_ANOMALY,BSTAR,MEAN_MOTION_DOT,MEAN_MOTION_DDOT,TLE_LINE0,TLE_LINE1,TLE_LINE2,SEMIMAJOR_AXIS,PERIOD,APOGEE,PERIGEE,DECAYED
51781.0,STARLINK-3580,PAYLOAD,2023-07-29 17:33:34,15.08853599,9.9e-05,53.2159,301.6519,91.5919,268.5187,0.00039687,6.036e-05,0.0,0 STARLINK-3580,1 51781U 22017P   23210.73165067  .00006036  00000-0  39687-3 0  9998,2 51781  53.2159 301.6519 0000990  91.5919 268.5187 15.08853599 80059,6917.839,95.437,540.389,539.019,0.0
51781.0,STARLINK-3580,PAYLOAD,2023-07-30 11:02:49,15.08837269,7.84e-05,53.2169,298.3831,101.0336,259.0745,-1.7882e-05,-5.72e-06,0.0,0 STARLINK-3580,1 51781U 22017P   23211.46029699 -.00000572  00000-0 -17882-4 0  9994,2 51781  53.2169 298.3831 0000784 101.0336 259.0745 15.08837269 80163,6917.889,95.438,540.296,539.211,0.0
51781.0,STARLINK-3580,PAYLOAD,2023-07-30 15:48:58,15.08848145,8.28e-05,53.2172,297.4914,77.6035,282.505,0.00031073,4.662e-05,0.0,0 STARLINK-3580,1 51781U 22017P   23211.65901600  .00004662  00000-0  31073-3 0  9995,2 51781  53.2172 297.4914 0000828  77.6035 282.5050 15.08848145 80190,6917.855,95.437,540.293,539.148,0.0
51781.0,STARLINK-3580,PAYLOAD,2023-07-31 10:53:36,15.0884821,9.38e-05,53.2172,293.9246,79.3952,280.7145,0.00040739,6.203e-05,0.0,0 STARLINK-3580,1 51781U 22017P   23212.45389635  .00006203  00000-0  40739-3 0  9994,2 51781  53.2172 293.9246 0000938  79.3952 280.7145 15.08848210 80310,6917.855,95.437,540.369,539.071,0.0
51781.0,STARLINK-3580,PAYLOAD,2023-07-31 22:01:18,15.08843664,7.87e-05,53.2156,291.8422,76.4319,283.676,0.00032362,4.867e-05,0.0,0 STARLINK-3580,1 51781U 22017P   23212.91757588  .00004867  00000-0  32362-3 0  9998,2 51781  53.2156 291.8422 0000787  76.4319 283.6760 15.08843664 80382,6917.869,95.437,540.279,539.19,0.0
51781.0,STARLINK-3580,PAYLOAD,2023-08-01 10:44:23,15.08836389,8.59e-05,53.2169,289.465,82.6541,277.4548,-4.1567e-05,-9.49e-06,0.0,0 STARLINK-3580,1 51781U 22017P   23213.44749871 -.00000949  00000-0 -41567-4 0  9990,2 51781  53.2169 289.4650 0000859  82.6541 277.4548 15.08836389 80468,6917.891,95.438,540.351,539.162,0.0
51781.0,STARLINK-3580,PAYLOAD,2023-08-02 16:56:43,15.08850016,0.0001115,53.2152,283.8143,99.9254,260.1864,-2.2511e-05,-6.46e-06,0.0,0 STARLINK-3580,1 51781U 22017P   23214.70605450 -.00000646  00000-0 -22511-4 0  9996,2 51781  53.2152 283.8143 0001115  99.9254 260.1864 15.08850016 80657,6917.85,95.437,540.486,538.943,0.0
51781.0,STARLINK-3580,PAYLOAD,2023-08-03 10:25:59,15.08818096,0.0001164,53.2152,280.5406,109.3088,250.803,0.00096574,0.00015106,0.0,0 STARLINK-3580,1 51781U 22017P   23215.43471414  .00015106  00000-0  96574-3 0  9992,2 51781  53.2152 280.5406 0001164 109.3088 250.8030 15.08818096 80763,6917.947,95.439,540.618,539.007,0.0
51781.0,STARLINK-3580,PAYLOAD,2023-08-03 12:01:21,15.08846673,9.92e-05,53.216,280.2426,97.0906,263.0199,0.0002161,3.154e-05,0.0,0 STARLINK-3580,1 51781U 22017P   23215.50093786  .00003154  00000-0  21610-3 0  9991,2 51781  53.2160 280.2426 0000992  97.0906 263.0199 15.08846673 80776,6917.86,95.437,540.411,539.039,0.0
51781.0,STARLINK-3580,PAYLOAD,2023-08-04 10:16:45,15.08835837,9.84e-05,53.215,276.0796,98.9825,261.1278,5.0727e-06,-2.07e-06,0.0,0 STARLINK-3580,1 51781U 22017P   23216.42830617 -.00000207  00000-0  50727-5 0  9995,2 51781  53.2150 276.0796 0000984  98.9825 261.1278 15.08835837 80912,6917.893,95.438,540.439,539.077,0.0
51781.0,STARLINK-3580,PAYLOAD,2023-08-05 10:07:32,15.08857391,0.0001042,53.2149,271.6205,75.9622,284.1486,0.00043627,6.665e-05,0.0,0 STARLINK-3580,1 51781U 22017P   23217.42189963  .00006665  00000-0  43627-3 0  9999,2 51781  53.2149 271.6205 0001042  75.9622 284.1486 15.08857391 81064,6917.827,95.436,540.413,538.971,0.0
51781.0,STARLINK-3580,PAYLOAD,2023-08-06 03:36:46,15.08845338,0.0001079,53.2149,268.35,81.2827,278.8287,0.0001687,2.398e-05,0.0,0 STARLINK-3580,1 51781U 22017P   23218.15054228  .00002398  00000-0  16870-3 0  9994,2 51781  53.2149 268.3500 0001079  81.2827 278.8287 15.08845338 81171,6917.864,95.437,540.476,538.983,0.0
51781.0,STARLINK-3580,PAYLOAD,2023-08-07 09:49:06,15.08837443,0.0001037,53.2157,262.699,78.3858,281.7251,5.3754e-05,5.68e-06,0.0,0 STARLINK-3580,1 51781U 22017P   23219.40910593  .00000568  00000-0  53754-4 0  9999,2 51781  53.2157 262.6990 0001037  78.3858 281.7251 15.08837443 81368,6917.888,95.438,540.471,539.036,0.0
51781.0,STARLINK-3580,PAYLOAD,2023-08-08 12:50:39,15.08846232,0.0001028,53.2155,257.6436,77.618,282.4927,0.00024175,3.562e-05,0.0,0 STARLINK-3580,1 51781U 22017P   23220.53518454  .00003562  00000-0  24175-3 0  9996,2 51781  53.2155 257.6436 0001028  77.6180 282.4927 15.08846232 81538,6917.861,95.437,540.437,539.015,0.0
51781.0,STARLINK-3580,PAYLOAD,2023-08-08 19:12:12,15.08839532,0.000102,53.2151,256.4547,76.6252,283.4854,0.00012265,1.665e-05,0.0,0 STARLINK-3580,1 51781U 22017P   23220.80014791  .00001665  00000-0  12265-3 0  9990,2 51781  53.2151 256.4547 0001020  76.6252 283.4854 15.08839532 81574,6917.882,95.438,540.452,539.041,0.0
51781.0,STARLINK-3580,PAYLOAD,2023-08-09 19:03:00,15.08836782,9.63e-05,53.216,251.9934,80.4216,279.6885,7.1845e-05,8.56e-06,0.0,0 STARLINK-3580,1 51781U 22017P   23221.79375305  .00000856  00000-0  71845-4 0  9991,2 51781  53.2160 251.9934 0000963  80.4216 279.6885 15.08836782 81724,6917.89,95.438,540.421,539.089,0.0
51781.0,STARLINK-3580,PAYLOAD,2023-08-11 01:15:19,15.08836205,0.0001012,53.216,246.3435,85.0468,275.064,8.7926e-05,1.112e-05,0.0,0 STARLINK-3580,1 51781U 22017P   23223.05231423  .00001112  00000-0  87926-4 0  9997,2 51781  53.2160 246.3435 0001012  85.0468 275.0640 15.08836205 81914,6917.892,95.438,540.457,539.057,0.0
51781.0,STARLINK-3580,PAYLOAD,2023-08-11 13:58:24,15.08844273,0.0001024,53.2158,243.9646,83.9934,276.1174,0.00010956,1.456e-05,0.0,0 STARLINK-3580,1 51781U 22017P   23223.58222872  .00001456  00000-0  10956-3 0  9992,2 51781  53.2158 243.9646 0001024  83.9934 276.1174 15.08844273 81992,6917.867,95.437,540.441,539.024,0.0
51781.0,STARLINK-3580,PAYLOAD,2023-08-12 01:06:06,15.08839451,0.0001046,53.2155,241.8832,84.0669,276.0442,9.8148e-05,1.275e-05,0.0,0 STARLINK-3580,1 51781U 22017P   23224.04591248  .00001275  00000-0  98148-4 0  9999,2 51781  53.2155 241.8832 0001046  84.0669 276.0442 15.08839451 82062,6917.882,95.438,540.471,539.023,0.0
51781.0,STARLINK-3580,PAYLOAD,2023-08-13 10:29:12,15.08841244,0.0001119,53.2156,235.6384,83.592,276.52,4.5636e-05,4.39e-06,0.0,0 STARLINK-3580,1 51781U 22017P   23225.43695191  .00000439  00000-0  45636-4 0  9990,2 51781  53.2156 235.6384 0001119  83.5920 276.5200 15.08841244 82274,6917.877,95.437,540.516,538.967,0.0
51781.0,STARLINK-3580,PAYLOAD,2023-08-15 00:38:28,15.08838112,0.0001101,53.2161,228.5023,87.6244,272.4874,5.583e-05,6.01e-06,0.0,0 STARLINK-3580,1 51781U 22017P   23227.02671373  .00000601  00000-0  55830-4 0  9991,2 51781  53.2161 228.5023 0001101  87.6244 272.4874 15.08838112 82515,6917.886,95.438,540.513,538.99,0.0
51781.0,STARLINK-3580,PAYLOAD,2023-08-16 06:50:47,15.08841457,0.0001128,53.2166,222.852,91.644,268.4681,6.5848e-05,7.6e-06,0.0,0 STARLINK-3580,1 51781U 22017P   23228.28527233  .00000760  00000-0  65848-4 0  9991,2 51781  53.2166 222.8520 0001128  91.6440 268.4681 15.08841457 82709,6917.876,95.437,540.521,538.961,0.0
51781.0,STARLINK-3580,PAYLOAD,2023-08-16 16:23:07,15.08832252,0.0001501,53.2163,221.0673,87.7313,272.3851,-1.1353e-05,-4.69e-06,0.0,0 STARLINK-3580,1 51781U 22017P   23228.68272165 -.00000469  00000-0 -11353-4 0  9996,2 51781  53.2163 221.0673 0001501  87.7313 272.3851 15.08832252 82768,6917.904,95.438,540.807,538.731,0.0
51781.0,STARLINK-3580,PAYLOAD,2023-08-17 09:52:21,15.08841148,0.0001331,53.2167,217.7975,96.2999,263.8145,8.8371e-05,1.119e-05,0.0,0 STARLINK-3580,1 51781U 22017P   23229.41135417  .00001119  00000-0  88371-4 0  9991,2 51781  53.2167 217.7975 0001331  96.2999 263.8145 15.08841148 82872,6917.877,95.437,540.663,538.821,0.0
51781.0,STARLINK-3580,PAYLOAD,2023-08-18 03:21:36,15.08835532,0.000128,53.2168,214.5264,90.5519,269.562,2.1462e-05,5.4e-07,0.0,0 STARLINK-3580,1 51781U 22017P   23230.14000135  .00000054  00000-0  21462-4 0  9996,2 51781  53.2168 214.5264 0001280  90.5519 269.5620 15.08835532 82980,6917.894,95.438,540.645,538.874,0.0
51781.0,STARLINK-3580,PAYLOAD,2023-08-19 04:47:46,15.08838669,0.0001247,53.2158,209.7679,88.5798,271.5337,9.4898e-05,1.223e-05,0.0,0 STARLINK-3580,1 51781U 22017P   23231.19984068  .00001223  00000-0  94898-4 0  9990,2 51781  53.2158 209.7679 0001247  88.5798 271.5337 15.08838669 83145,6917.884,95.438,540.612,538.887,0.0
51781.0,STARLINK-3580,PAYLOAD,2023-08-21 04:29:19,15.08845165,0.0001148,53.2156,200.8471,89.0293,271.0831,0.00013156,1.807e-05,0.0,0 STARLINK-3580,1 51781U 22017P   23233.18703639  .00001807  00000-0  13156-3 0  9999,2 51781  53.2156 200.8471 0001148  89.0293 271.0831 15.08845165 83447,6917.865,95.437,540.524,538.935,0.0
51781.0,STARLINK-3580,PAYLOAD,2023-08-22 04:20:08,15.08789856,0.0001738,53.2174,196.3826,109.3597,250.7583,0.0006584,0.00010192,0.0,0 STARLINK-3580,1 51781U 22017P   23234.18065780  .00010192  00000-0  65840-3 0  9992,2 51781  53.2174 196.3826 0001738 109.3597 250.7583 15.08789856 83596,6918.034,95.441,541.101,538.696,0.0
51781.0,STARLINK-3580,PAYLOAD,2023-08-22 07:30:53,15.08838639,0.0001501,53.2173,195.7888,102.2033,257.9128,-3.6029e-05,-8.61e-06,0.0,0 STARLINK-3580,1 51781U 22017P   23234.31312409 -.00000861  00000-0 -36029-4 0  9992,2 51781  53.2173 195.7888 0001501 102.2033 257.9128 15.08838639 83612,6917.885,95.438,540.788,538.711,0.0
51781.0,STARLINK-3580,PAYLOAD,2023-08-24 05:37:04,15.08837906,0.0001363,53.2177,187.1666,92.4966,267.6182,7.3524e-05,8.82e-06,0.0,0 STARLINK-3580,1 51781U 22017P   23236.23408497  .00000882  00000-0  73524-4 0  9990,2 51781  53.2177 187.1666 0001363  92.4966 267.6182 15.08837906 82259,6917.887,95.438,540.695,538.809,0.0
